CCSDS_OMM_VERS = 2.0
CREATION_DATE  = 
ORIGINATOR     = 

OBJECT_NAME    = SL-3 R/B
OBJECT_ID      = 1982-079B
CENTER_NAME    = EARTH
REF_FRAME      = TEME
TIME_SYSTEM    = UTC
MEAN_ELEMENT_THEORY = SGP/SGP4

EPOCH          = 2026-04-01T04:09:32.614560
MEAN_MOTION    = 15.25097960
ECCENTRICITY   = .0025507
INCLINATION    = 81.1481
RA_OF_ASC_NODE = 166.5291
ARG_OF_PERICENTER = 90.9528
MEAN_ANOMALY   = 269.4628

EPHEMERIS_TYPE = 0
CLASSIFICATION_TYPE = U
NORAD_CAT_ID   = 13403
ELEMENT_SET_NO = 999
REV_AT_EPOCH   = 38112
BSTAR          = .20954E-3
MEAN_MOTION_DOT = .5318E-4
MEAN_MOTION_DDOT = 0

CCSDS_OMM_VERS = 2.0
CREATION_DATE  = 
ORIGINATOR     = 

OBJECT_NAME    = SL-14 R/B
OBJECT_ID      = 1982-092B
CENTER_NAME    = EARTH
REF_FRAME      = TEME
TIME_SYSTEM    = UTC
MEAN_ELEMENT_THEORY = SGP/SGP4

EPOCH          = 2026-04-01T04:37:09.016608
MEAN_MOTION    = 14.86686449
ECCENTRICITY   = .0019235
INCLINATION    = 82.5654
RA_OF_ASC_NODE = 120.3475
ARG_OF_PERICENTER = 223.2555
MEAN_ANOMALY   = 205.7478

EPHEMERIS_TYPE = 0
CLASSIFICATION_TYPE = U
NORAD_CAT_ID   = 13553
ELEMENT_SET_NO = 999
REV_AT_EPOCH   = 33227
BSTAR          = .48728E-4
MEAN_MOTION_DOT = .459E-5
MEAN_MOTION_DDOT = 0

CCSDS_OMM_VERS = 2.0
CREATION_DATE  = 
ORIGINATOR     = 

OBJECT_NAME    = SL-3 R/B
OBJECT_ID      = 1983-010B
CENTER_NAME    = EARTH
REF_FRAME      = TEME
TIME_SYSTEM    = UTC
MEAN_ELEMENT_THEORY = SGP/SGP4

EPOCH          = 2026-04-01T03:28:14.512224
MEAN_MOTION    = 15.47119307
ECCENTRICITY   = .0015685
INCLINATION    = 81.1046
RA_OF_ASC_NODE = 334.7046
ARG_OF_PERICENTER = 333.7155
MEAN_ANOMALY   = 26.3292

EPHEMERIS_TYPE = 0
CLASSIFICATION_TYPE = U
NORAD_CAT_ID   = 13819
ELEMENT_SET_NO = 999
REV_AT_EPOCH   = 36141
BSTAR          = .36108E-3
MEAN_MOTION_DOT = .18435E-3
MEAN_MOTION_DDOT = 0

CCSDS_OMM_VERS = 2.0
CREATION_DATE  = 
ORIGINATOR     = 

OBJECT_NAME    = SL-3 R/B
OBJECT_ID      = 1983-075B
CENTER_NAME    = EARTH
REF_FRAME      = TEME
TIME_SYSTEM    = UTC
MEAN_ELEMENT_THEORY = SGP/SGP4

EPOCH          = 2026-04-01T04:31:24.684960
MEAN_MOTION    = 15.38955470
ECCENTRICITY   = .0022584
INCLINATION    = 97.6132
RA_OF_ASC_NODE = 96.6268
ARG_OF_PERICENTER = 145.1026
MEAN_ANOMALY   = 215.1705

EPHEMERIS_TYPE = 0
CLASSIFICATION_TYPE = U
NORAD_CAT_ID   = 14208
ELEMENT_SET_NO = 999
REV_AT_EPOCH   = 33361
BSTAR          = .29206E-3
MEAN_MOTION_DOT = .11274E-3
MEAN_MOTION_DDOT = 0

CCSDS_OMM_VERS = 2.0
CREATION_DATE  = 
ORIGINATOR     = 

OBJECT_NAME    = COSMOS 1536
OBJECT_ID      = 1984-013A
CENTER_NAME    = EARTH
REF_FRAME      = TEME
TIME_SYSTEM    = UTC
MEAN_ELEMENT_THEORY = SGP/SGP4

EPOCH          = 2026-04-01T01:03:49.513248
MEAN_MOTION    = 15.24139012
ECCENTRICITY   = .0013745
INCLINATION    = 82.5412
RA_OF_ASC_NODE = 85.6170
ARG_OF_PERICENTER = 196.0730
MEAN_ANOMALY   = 164.0073

EPHEMERIS_TYPE = 0
CLASSIFICATION_TYPE = U
NORAD_CAT_ID   = 14699
ELEMENT_SET_NO = 999
REV_AT_EPOCH   = 27602
BSTAR          = .37651E-3
MEAN_MOTION_DOT = .9212E-4
MEAN_MOTION_DDOT = 0

CCSDS_OMM_VERS = 2.0
CREATION_DATE  = 
ORIGINATOR     = 

OBJECT_NAME    = SL-14 R/B
OBJECT_ID      = 1984-027B
CENTER_NAME    = EARTH
REF_FRAME      = TEME
TIME_SYSTEM    = UTC
MEAN_ELEMENT_THEORY = SGP/SGP4

EPOCH          = 2026-04-01T02:47:31.610112
MEAN_MOTION    = 14.86001037
ECCENTRICITY   = .0016499
INCLINATION    = 82.5423
RA_OF_ASC_NODE = 223.9780
ARG_OF_PERICENTER = 258.2067
MEAN_ANOMALY   = 101.7299

EPHEMERIS_TYPE = 0
CLASSIFICATION_TYPE = U
NORAD_CAT_ID   = 14820
ELEMENT_SET_NO = 999
REV_AT_EPOCH   = 25096
BSTAR          = .78345E-4
MEAN_MOTION_DOT = .71E-5
MEAN_MOTION_DDOT = 0

CCSDS_OMM_VERS = 2.0
CREATION_DATE  = 
ORIGINATOR     = 

OBJECT_NAME    = SL-8 R/B
OBJECT_ID      = 1985-006B
CENTER_NAME    = EARTH
REF_FRAME      = TEME
TIME_SYSTEM    = UTC
MEAN_ELEMENT_THEORY = SGP/SGP4

EPOCH          = 2026-04-01T02:01:06.087936
MEAN_MOTION    = 14.37799653
ECCENTRICITY   = .0017559
INCLINATION    = 74.0457
RA_OF_ASC_NODE = 219.9384
ARG_OF_PERICENTER = 131.1527
MEAN_ANOMALY   = 41.9277

EPHEMERIS_TYPE = 0
CLASSIFICATION_TYPE = U
NORAD_CAT_ID   = 15483
ELEMENT_SET_NO = 999
REV_AT_EPOCH   = 15724
BSTAR          = .13453E-3
MEAN_MOTION_DOT = .38E-5
MEAN_MOTION_DDOT = 0

CCSDS_OMM_VERS = 2.0
CREATION_DATE  = 
ORIGINATOR     = 

OBJECT_NAME    = SL-12 R/B(2)
OBJECT_ID      = 1985-042D
CENTER_NAME    = EARTH
REF_FRAME      = TEME
TIME_SYSTEM    = UTC
MEAN_ELEMENT_THEORY = SGP/SGP4

EPOCH          = 2026-04-01T05:05:58.006752
MEAN_MOTION    = 14.21988785
ECCENTRICITY   = .0032845
INCLINATION    = 71.1095
RA_OF_ASC_NODE = 40.1420
ARG_OF_PERICENTER = 90.7588
MEAN_ANOMALY   = 9.8322

EPHEMERIS_TYPE = 0
CLASSIFICATION_TYPE = U
NORAD_CAT_ID   = 15772
ELEMENT_SET_NO = 999
REV_AT_EPOCH   = 11759
BSTAR          = .68375E-4
MEAN_MOTION_DOT = .104E-5
MEAN_MOTION_DDOT = 0

CCSDS_OMM_VERS = 2.0
CREATION_DATE  = 
ORIGINATOR     = 

OBJECT_NAME    = SL-14 R/B
OBJECT_ID      = 1985-069B
CENTER_NAME    = EARTH
REF_FRAME      = TEME
TIME_SYSTEM    = UTC
MEAN_ELEMENT_THEORY = SGP/SGP4

EPOCH          = 2026-04-01T03:52:42.621024
MEAN_MOTION    = 14.86457284
ECCENTRICITY   = .0020191
INCLINATION    = 82.5306
RA_OF_ASC_NODE = 3.8083
ARG_OF_PERICENTER = 115.8298
MEAN_ANOMALY   = 244.5004

EPHEMERIS_TYPE = 0
CLASSIFICATION_TYPE = U
NORAD_CAT_ID   = 15945
ELEMENT_SET_NO = 999
REV_AT_EPOCH   = 17617
BSTAR          = .58222E-4
MEAN_MOTION_DOT = .541E-5
MEAN_MOTION_DDOT = 0

CCSDS_OMM_VERS = 2.0
CREATION_DATE  = 
ORIGINATOR     = 

OBJECT_NAME    = SL-16 R/B
OBJECT_ID      = 1985-097B
CENTER_NAME    = EARTH
REF_FRAME      = TEME
TIME_SYSTEM    = UTC
MEAN_ELEMENT_THEORY = SGP/SGP4

EPOCH          = 2026-04-01T05:35:44.139264
MEAN_MOTION    = 14.16603107
ECCENTRICITY   = .0009358
INCLINATION    = 71.0007
RA_OF_ASC_NODE = 93.0911
ARG_OF_PERICENTER = 233.2792
MEAN_ANOMALY   = 206.0373

EPHEMERIS_TYPE = 0
CLASSIFICATION_TYPE = U
NORAD_CAT_ID   = 16182
ELEMENT_SET_NO = 999
REV_AT_EPOCH   = 9042
BSTAR          = -.68593E-4
MEAN_MOTION_DOT = -.185E-5
MEAN_MOTION_DDOT = 0

CCSDS_OMM_VERS = 2.0
CREATION_DATE  = 
ORIGINATOR     = 

OBJECT_NAME    = SL-14 R/B
OBJECT_ID      = 1986-006B
CENTER_NAME    = EARTH
REF_FRAME      = TEME
TIME_SYSTEM    = UTC
MEAN_ELEMENT_THEORY = SGP/SGP4

EPOCH          = 2026-04-01T03:11:22.381152
MEAN_MOTION    = 14.86853439
ECCENTRICITY   = .0076051
INCLINATION    = 82.5256
RA_OF_ASC_NODE = 238.6100
ARG_OF_PERICENTER = 197.2502
MEAN_ANOMALY   = 162.6130

EPHEMERIS_TYPE = 0
CLASSIFICATION_TYPE = U
NORAD_CAT_ID   = 16496
ELEMENT_SET_NO = 999
REV_AT_EPOCH   = 15254
BSTAR          = .13238E-3
MEAN_MOTION_DOT = .1271E-4
MEAN_MOTION_DDOT = 0

CCSDS_OMM_VERS = 2.0
CREATION_DATE  = 
ORIGINATOR     = 

OBJECT_NAME    = COSMOS 1743
OBJECT_ID      = 1986-034A
CENTER_NAME    = EARTH
REF_FRAME      = TEME
TIME_SYSTEM    = UTC
MEAN_ELEMENT_THEORY = SGP/SGP4

EPOCH          = 2026-04-01T03:57:24.989184
MEAN_MOTION    = 15.60504561
ECCENTRICITY   = .0005145
INCLINATION    = 82.5312
RA_OF_ASC_NODE = 50.2086
ARG_OF_PERICENTER = 162.0075
MEAN_ANOMALY   = 198.1365

EPHEMERIS_TYPE = 0
CLASSIFICATION_TYPE = U
NORAD_CAT_ID   = 16719
ELEMENT_SET_NO = 999
REV_AT_EPOCH   = 18375
BSTAR          = .73956E-3
MEAN_MOTION_DOT = .61283E-3
MEAN_MOTION_DDOT = 0

