SL-3 R/B                
1 13403U 82079B   26091.17329415  .00005318  00000+0  20954-3 0  9996
2 13403  81.1481 166.5291 0025507  90.9528 269.4628 15.25097960381124
SL-14 R/B               
1 13553U 82092B   26091.19246547  .00000459  00000+0  48728-4 0  9994
2 13553  82.5654 120.3475 0019235 223.2555 205.7478 14.86686449332271
SL-3 R/B                
1 13819U 83010B   26091.14461241  .00018435  00000+0  36108-3 0  9996
2 13819  81.1046 334.7046 0015685 333.7155  26.3292 15.47119307361410
SL-3 R/B                
1 14208U 83075B   26091.18848015  .00011274  00000+0  29206-3 0  9997
2 14208  97.6132  96.6268 0022584 145.1026 215.1705 15.38955470333616
COSMOS 1536             
1 14699U 84013A   26091.04432307  .00009212  00000+0  37651-3 0  9994
2 14699  82.5412  85.6170 0013745 196.0730 164.0073 15.24139012276022
SL-14 R/B               
1 14820U 84027B   26091.11633808  .00000710  00000+0  78345-4 0  9992
2 14820  82.5423 223.9780 0016499 258.2067 101.7299 14.86001037250962
SL-8 R/B                
1 15483U 85006B   26091.08409824  .00000380  00000+0  13453-3 0  9992
2 15483  74.0457 219.9384 0017559 131.1527  41.9277 14.37799653157246
SL-12 R/B(2)            
1 15772U 85042D   26091.21247693  .00000104  00000+0  68375-4 0  9990
2 15772  71.1095  40.1420 0032845  90.7588   9.8322 14.21988785117597
SL-14 R/B               
1 15945U 85069B   26091.16160441  .00000541  00000+0  58222-4 0  9995
2 15945  82.5306   3.8083 0020191 115.8298 244.5004 14.86457284176179
SL-16 R/B               
1 16182U 85097B   26091.23314976 -.00000185  00000+0 -68593-4 0  9990
2 16182  71.0007  93.0911 0009358 233.2792 206.0373 14.16603107 90426
SL-14 R/B               
1 16496U 86006B   26091.13289793  .00001271  00000+0  13238-3 0  9996
2 16496  82.5256 238.6100 0076051 197.2502 162.6130 14.86853439152548
COSMOS 1743             
1 16719U 86034A   26091.16487256  .00061283  00000+0  73956-3 0  9994
2 16719  82.5312  50.2086 0005145 162.0075 198.1365 15.60504561183754
